[
  {
    "name": "ONEWEB-0535",
    "noradId": "54147",
    "line1": "1 54147U 22138AL  26166.41132441  .00000105  00000+0  23013-3 0  9995",
    "line2": "2 54147  87.9177 305.3121 0002183  95.7836 264.3546 13.19725368176604"
  },
  {
    "name": "ONEWEB-0536",
    "noradId": "54148",
    "line1": "1 54148U 22138AM  26166.55290764  .00000063  00000+0  12267-3 0  9996",
    "line2": "2 54148  87.9182 274.7834 0002948 108.2614 251.8841 13.20771652179087"
  },
  {
    "name": "ONEWEB-0527",
    "noradId": "54642",
    "line1": "1 54642U 22166A   26166.51130029  .00000010  00000+0 -78812-5 0  9992",
    "line2": "2 54642  87.9253 244.3309 0001968 100.1849 259.9507 13.21823295171315"
  },
  {
    "name": "ONEWEB-0528",
    "noradId": "54643",
    "line1": "1 54643U 22166B   26166.51214294  .00000034  00000+0  51822-4 0  9996",
    "line2": "2 54643  87.9255 244.3330 0001855 103.3115 256.8226 13.21824532171328"
  },
  {
    "name": "ONEWEB-0539",
    "noradId": "54644",
    "line1": "1 54644U 22166C   26166.47431479  .00000101  00000+0  21401-3 0  9992",
    "line2": "2 54644  87.9261 244.3121 0001985  92.6840 267.4521 13.21826833171314"
  },
  {
    "name": "ONEWEB-0540",
    "noradId": "54645",
    "line1": "1 54645U 22166D   26166.48117691  .00000098  00000+0  20672-3 0  9995",
    "line2": "2 54645  87.9253 244.3411 0002046  95.3038 264.8329 13.21827129171301"
  },
  {
    "name": "ONEWEB-0542",
    "noradId": "54646",
    "line1": "1 54646U 22166E   26166.25730846  .00000120  00000+0  25870-3 0  9995",
    "line2": "2 54646  87.9263 244.3538 0002030  90.2357 269.9009 13.21828229171284"
  },
  {
    "name": "ONEWEB-0545",
    "noradId": "54647",
    "line1": "1 54647U 22166F   26166.44906668  .00000002  00000+0 -26583-4 0  9997",
    "line2": "2 54647  87.9254 244.3276 0002161  84.8664 275.2716 13.21828699171274"
  },
  {
    "name": "ONEWEB-0580",
    "noradId": "54648",
    "line1": "1 54648U 22166G   26166.49953203  .00000000  00000+0 -32305-4 0  9997",
    "line2": "2 54648  87.9255 244.3174 0002270  89.4337 270.7057 13.21827548171328"
  },
  {
    "name": "ONEWEB-0582",
    "noradId": "54649",
    "line1": "1 54649U 22166H   26166.23881542  .00000161  00000+0  35739-3 0  9996",
    "line2": "2 54649  87.9256 244.3620 0002207  87.7235 272.4152 13.21827284171269"
  },
  {
    "name": "ONEWEB-0583",
    "noradId": "54650",
    "line1": "1 54650U 22166J   26166.47766973  .00000096  00000+0  20194-3 0  9990",
    "line2": "2 54650  87.9253 244.3376 0002066  95.5557 264.5812 13.21827972171307"
  },
  {
    "name": "ONEWEB-0584",
    "noradId": "54651",
    "line1": "1 54651U 22166K   26166.49785679 -.00000016  00000+0 -71234-4 0  9993",
    "line2": "2 54651  87.9253 244.3191 0002110  96.2728 263.8646 13.21825548171293"
  },
  {
    "name": "ONEWEB-0585",
    "noradId": "54652",
    "line1": "1 54652U 22166L   26166.44572030  .00000033  00000+0  49178-4 0  9993",
    "line2": "2 54652  87.9257 244.3164 0001998 103.2208 256.9149 13.21827042171295"
  },
  {
    "name": "ONEWEB-0586",
    "noradId": "54653",
    "line1": "1 54653U 22166M   26166.23207229  .00000115  00000+0  24621-3 0  9992",
    "line2": "2 54653  87.9254 244.3845 0001989  94.0061 266.1300 13.21824199171262"
  },
  {
    "name": "ONEWEB-0587",
    "noradId": "54654",
    "line1": "1 54654U 22166N   26166.46925389  .00000117  00000+0  25130-3 0  9990",
    "line2": "2 54654  87.9266 244.3108 0002020 108.7916 251.3437 13.21824680171450"
  },
  {
    "name": "ONEWEB-0589",
    "noradId": "54655",
    "line1": "1 54655U 22166P   26166.45579854  .00000029  00000+0  39559-4 0  9995",
    "line2": "2 54655  87.9252 244.3257 0002459  79.4204 280.7207 13.21824916171319"
  },
  {
    "name": "ONEWEB-0590",
    "noradId": "54656",
    "line1": "1 54656U 22166Q   26166.48090312  .00000140  00000+0  30679-3 0  9993",
    "line2": "2 54656  87.9263 244.3110 0002509 100.7727 259.3690 13.21827167171302"
  },
  {
    "name": "ONEWEB-0591",
    "noradId": "54657",
    "line1": "1 54657U 22166R   26166.49282395  .00000000  00000+0 -31156-4 0  9997",
    "line2": "2 54657  87.9254 244.3233 0002095  98.6511 261.4860 13.21826209171337"
  },
  {
    "name": "ONEWEB-0592",
    "noradId": "54658",
    "line1": "1 54658U 22166S   26166.49617479  .00000024  00000+0  27367-4 0  9997",
    "line2": "2 54658  87.9264 244.3006 0002036  98.6243 261.5121 13.21827482171216"
  },
  {
    "name": "ONEWEB-0593",
    "noradId": "54659",
    "line1": "1 54659U 22166T   26165.91246058 -.00000042  00000+0 -13339-3 0  9990",
    "line2": "2 54659  87.9254 244.4285 0001939  94.6699 265.4656 13.21824703171240"
  },
  {
    "name": "ONEWEB-0594",
    "noradId": "54660",
    "line1": "1 54660U 22166U   26166.46254117  .00000095  00000+0  19843-3 0  9990",
    "line2": "2 54660  87.9252 244.3354 0001911 102.5056 257.6292 13.21827971171331"
  },
  {
    "name": "ONEWEB-0595",
    "noradId": "54661",
    "line1": "1 54661U 22166V   26166.51467485 -.00000037  00000+0 -12134-3 0  9995",
    "line2": "2 54661  87.9262 244.3055 0002076 105.4360 254.7003 13.21827386171310"
  },
  {
    "name": "ONEWEB-0596",
    "noradId": "54662",
    "line1": "1 54662U 22166W   26166.48945427  .00000025  00000+0  27809-4 0  9990",
    "line2": "2 54662  87.9258 244.3222 0002053 101.9946 258.1418 13.21826691171314"
  },
  {
    "name": "ONEWEB-0597",
    "noradId": "54663",
    "line1": "1 54663U 22166X   26166.24386106  .00000030  00000+0  41177-4 0  9998",
    "line2": "2 54663  87.9253 244.3742 0002045  95.4115 264.7252 13.21827049171286"
  },
  {
    "name": "ONEWEB-0600",
    "noradId": "54664",
    "line1": "1 54664U 22166Y   26166.45243242  .00000047  00000+0  83296-4 0  9991",
    "line2": "2 54664  87.9254 244.3241 0001861  96.3139 263.8207 13.21824697171289"
  },
  {
    "name": "ONEWEB-0601",
    "noradId": "54665",
    "line1": "1 54665U 22166Z   26165.91415456 -.00000092  00000+0 -25388-3 0  9999",
    "line2": "2 54665  87.9252 244.4472 0002132  92.2522 267.8856 13.21825454171408"
  },
  {
    "name": "ONEWEB-0602",
    "noradId": "54666",
    "line1": "1 54666U 22166AA  26166.48524211  .00000123  00000+0  26562-3 0  9991",
    "line2": "2 54666  87.9255 244.3397 0001773  94.5898 265.5439 13.21826369171327"
  },
  {
    "name": "ONEWEB-0603",
    "noradId": "54667",
    "line1": "1 54667U 22166AB  26166.49113821  .00000114  00000+0  24524-3 0  9990",
    "line2": "2 54667  87.9266 244.2954 0002011  96.0249 264.1114 13.21826904171253"
  },
  {
    "name": "ONEWEB-0604",
    "noradId": "54668",
    "line1": "1 54668U 22166AC  26166.47935063  .00000077  00000+0  15585-3 0  9994",
    "line2": "2 54668  87.9263 244.3133 0002001 101.0969 259.0390 13.21827594171217"
  },
  {
    "name": "ONEWEB-0605",
    "noradId": "54669",
    "line1": "1 54669U 22166AD  26166.24554758  .00000082  00000+0  16660-3 0  9999",
    "line2": "2 54669  87.9255 244.3734 0002574  90.5583 269.5845 13.21827172171252"
  },
  {
    "name": "ONEWEB-0606",
    "noradId": "54670",
    "line1": "1 54670U 22166AE  26166.49450080 -.00000007  00000+0 -49333-4 0  9994",
    "line2": "2 54670  87.9257 244.3363 0001980 103.8906 256.2448 13.21826769171344"
  }
]