OBJECT_NAME,OBJECT_ID,EPOCH,MEAN_MOTION,ECCENTRICITY,INCLINATION,RA_OF_ASC_NODE,ARG_OF_PERICENTER,MEAN_ANOMALY,EPHEMERIS_TYPE,CLASSIFICATION_TYPE,NORAD_CAT_ID,ELEMENT_SET_NO,REV_AT_EPOCH,BSTAR,MEAN_MOTION_DOT,MEAN_MOTION_DDOT
ONEWEB-0535,2022-138AL,2026-06-15T09:52:18.429024,13.19725368,.0002183,87.9177,305.3121,95.7836,264.3546,0,U,54147,999,17660,.23013E-3,.105E-5,0
ONEWEB-0536,2022-138AM,2026-06-15T13:16:11.220096,13.20771652,.0002948,87.9182,274.7834,108.2614,251.8841,0,U,54148,999,17908,.12267E-3,.63E-6,0
ONEWEB-0527,2022-166A,2026-06-15T12:16:16.345056,13.21823295,.0001968,87.9253,244.3309,100.1849,259.9507,0,U,54642,999,17131,-.78812E-5,.1E-6,0
ONEWEB-0528,2022-166B,2026-06-15T12:17:29.150016,13.21824532,.0001855,87.9255,244.3330,103.3115,256.8226,0,U,54643,999,17132,.51822E-4,.34E-6,0
ONEWEB-0539,2022-166C,2026-06-15T11:23:00.797856,13.21826833,.0001985,87.9261,244.3121,92.6840,267.4521,0,U,54644,999,17131,.21401E-3,.101E-5,0
ONEWEB-0540,2022-166D,2026-06-15T11:32:53.685024,13.21827129,.0002046,87.9253,244.3411,95.3038,264.8329,0,U,54645,999,17130,.20672E-3,.98E-6,0
ONEWEB-0542,2022-166E,2026-06-15T06:10:31.450944,13.21828229,.000203,87.9263,244.3538,90.2357,269.9009,0,U,54646,999,17128,.2587E-3,.12E-5,0
ONEWEB-0545,2022-166F,2026-06-15T10:46:39.361152,13.21828699,.0002161,87.9254,244.3276,84.8664,275.2716,0,U,54647,999,17127,-.26583E-4,.2E-7,0
ONEWEB-0580,2022-166G,2026-06-15T11:59:19.567392,13.21827548,.000227,87.9255,244.3174,89.4337,270.7057,0,U,54648,999,17132,-.32305E-4,0,0
ONEWEB-0582,2022-166H,2026-06-15T05:43:53.652288,13.21827284,.0002207,87.9256,244.3620,87.7235,272.4152,0,U,54649,999,17126,.35739E-3,.161E-5,0
ONEWEB-0583,2022-166J,2026-06-15T11:27:50.664672,13.21827972,.0002066,87.9253,244.3376,95.5557,264.5812,0,U,54650,999,17130,.20194E-3,.96E-6,0
ONEWEB-0584,2022-166K,2026-06-15T11:56:54.826656,13.21825548,.000211,87.9253,244.3191,96.2728,263.8646,0,U,54651,999,17129,-.71234E-4,-.16E-6,0
ONEWEB-0585,2022-166L,2026-06-15T10:41:50.233920,13.21827042,.0001998,87.9257,244.3164,103.2208,256.9149,0,U,54652,999,17129,.49178E-4,.33E-6,0
ONEWEB-0586,2022-166M,2026-06-15T05:34:11.045856,13.21824199,.0001989,87.9254,244.3845,94.0061,266.1300,0,U,54653,999,17126,.24621E-3,.115E-5,0
ONEWEB-0587,2022-166N,2026-06-15T11:15:43.536096,13.21824680,.000202,87.9266,244.3108,108.7916,251.3437,0,U,54654,999,17145,.2513E-3,.117E-5,0
ONEWEB-0589,2022-166P,2026-06-15T10:56:20.993856,13.21824916,.0002459,87.9252,244.3257,79.4204,280.7207,0,U,54655,999,17131,.39559E-4,.29E-6,0
ONEWEB-0590,2022-166Q,2026-06-15T11:32:30.029568,13.21827167,.0002509,87.9263,244.3110,100.7727,259.3690,0,U,54656,999,17130,.30679E-3,.14E-5,0
ONEWEB-0591,2022-166R,2026-06-15T11:49:39.989280,13.21826209,.0002095,87.9254,244.3233,98.6511,261.4860,0,U,54657,999,17133,-.31156E-4,0,0
ONEWEB-0592,2022-166S,2026-06-15T11:54:29.501856,13.21827482,.0002036,87.9264,244.3006,98.6243,261.5121,0,U,54658,999,17121,.27367E-4,.24E-6,0
ONEWEB-0593,2022-166T,2026-06-14T21:53:56.594112,13.21824703,.0001939,87.9254,244.4285,94.6699,265.4656,0,U,54659,999,17124,-.13339E-3,-.42E-6,0
ONEWEB-0594,2022-166U,2026-06-15T11:06:03.557088,13.21827971,.0001911,87.9252,244.3354,102.5056,257.6292,0,U,54660,999,17133,.19843E-3,.95E-6,0
ONEWEB-0595,2022-166V,2026-06-15T12:21:07.907040,13.21827386,.0002076,87.9262,244.3055,105.4360,254.7003,0,U,54661,999,17131,-.12134E-3,-.37E-6,0
ONEWEB-0596,2022-166W,2026-06-15T11:44:48.848928,13.21826691,.0002053,87.9258,244.3222,101.9946,258.1418,0,U,54662,999,17131,.27809E-4,.25E-6,0
ONEWEB-0597,2022-166X,2026-06-15T05:51:09.595584,13.21827049,.0002045,87.9253,244.3742,95.4115,264.7252,0,U,54663,999,17128,.41177E-4,.3E-6,0
ONEWEB-0600,2022-166Y,2026-06-15T10:51:30.161088,13.21824697,.0001861,87.9254,244.3241,96.3139,263.8207,0,U,54664,999,17128,.83296E-4,.47E-6,0
ONEWEB-0601,2022-166Z,2026-06-14T21:56:22.953984,13.21825454,.0002132,87.9252,244.4472,92.2522,267.8856,0,U,54665,999,17140,-.25388E-3,-.92E-6,0
ONEWEB-0602,2022-166AA,2026-06-15T11:38:44.918304,13.21826369,.0001773,87.9255,244.3397,94.5898,265.5439,0,U,54666,999,17132,.26562E-3,.123E-5,0
ONEWEB-0603,2022-166AB,2026-06-15T11:47:14.341344,13.21826904,.0002011,87.9266,244.2954,96.0249,264.1114,0,U,54667,999,17125,.24524E-3,.114E-5,0
ONEWEB-0604,2022-166AC,2026-06-15T11:30:15.894432,13.21827594,.0002001,87.9263,244.3133,101.0969,259.0390,0,U,54668,999,17121,.15585E-3,.77E-6,0
ONEWEB-0605,2022-166AD,2026-06-15T05:53:35.310912,13.21827172,.0002574,87.9255,244.3734,90.5583,269.5845,0,U,54669,999,17125,.1666E-3,.82E-6,0
ONEWEB-0606,2022-166AE,2026-06-15T11:52:04.869120,13.21826769,.000198,87.9257,244.3363,103.8906,256.2448,0,U,54670,999,17134,-.49333E-4,-.7E-7,0
